{
  "type": "FeatureCollection",
  "features": [
    {
      "type": "Feature",
      "properties": {
        "norad_id": 36148,
        "name": "FENGYUN 1C DEB",
        "group": "fengyun-1c-debris",
        "lat": -62.52157416840162,
        "lon": -8.00025666438375,
        "alt_km": 1093.351325315849,
        "timestamp": "2025-12-02T17:49:12.315813+00:00",
        "meta_object_name": "FENGYUN 1C DEB",
        "meta_object_id": "1999-025DRV",
        "meta_epoch": "2025-12-01T19:49:52.589568",
        "meta_mean_motion": 13.84775796,
        "meta_eccentricity": 0.02844186,
        "meta_inclination": 98.4221,
        "meta_ra_of_asc_node": 187.7265,
        "meta_arg_of_pericenter": 19.3374,
        "meta_mean_anomaly": 341.832,
        "meta_ephemeris_type": 0,
        "meta_classification_type": "U",
        "meta_norad_cat_id": 36148,
        "meta_element_set_no": 999,
        "meta_rev_at_epoch": 90093,
        "meta_bstar": 0.0033360095,
        "meta_mean_motion_dot": 5.112e-05,
        "meta_mean_motion_ddot": 0,
        "tle_line1": "1 36148U 99025DRV 25335.82630312  .00005112  00000+0  33360-2 0  9995",
        "tle_line2": "2 36148  98.4221 187.7265 0284418  19.3374 341.8320 13.84775796900939"
      },
      "geometry": {
        "type": "Point",
        "coordinates": [
          -8.00025666438375,
          -62.52157416840162
        ]
      }
    },
    {
      "type": "Feature",
      "properties": {
        "norad_id": 36152,
        "name": "FENGYUN 1C DEB",
        "group": "fengyun-1c-debris",
        "lat": -25.31344656230618,
        "lon": 20.873393193033905,
        "alt_km": 842.9055701477573,
        "timestamp": "2025-12-02T17:49:12.315823+00:00",
        "meta_object_name": "FENGYUN 1C DEB",
        "meta_object_id": "1999-025DRZ",
        "meta_epoch": "2025-12-01T19:54:46.717632",
        "meta_mean_motion": 14.17165266,
        "meta_eccentricity": 0.00551923,
        "meta_inclination": 98.7567,
        "meta_ra_of_asc_node": 15.7938,
        "meta_arg_of_pericenter": 243.2962,
        "meta_mean_anomaly": 116.2556,
        "meta_ephemeris_type": 0,
        "meta_classification_type": "U",
        "meta_norad_cat_id": 36152,
        "meta_element_set_no": 999,
        "meta_rev_at_epoch": 64002,
        "meta_bstar": 0.0012638311,
        "meta_mean_motion_dot": 2.542e-05,
        "meta_mean_motion_ddot": 0,
        "tle_line1": "1 36152U 99025DRZ 25335.82970738  .00002542  00000+0  12638-2 0  9998",
        "tle_line2": "2 36152  98.7567  15.7938 0055192 243.2962 116.2556 14.17165266640021"
      },
      "geometry": {
        "type": "Point",
        "coordinates": [
          20.873393193033905,
          -25.31344656230618
        ]
      }
    },
    {
      "type": "Feature",
      "properties": {
        "norad_id": 36163,
        "name": "FENGYUN 1C DEB",
        "group": "fengyun-1c-debris",
        "lat": 52.59638478488366,
        "lon": 167.82696415289547,
        "alt_km": 676.0869728254202,
        "timestamp": "2025-12-02T17:49:12.315833+00:00",
        "meta_object_name": "FENGYUN 1C DEB",
        "meta_object_id": "1999-025DSL",
        "meta_epoch": "2025-11-27T12:26:15.654336",
        "meta_mean_motion": 14.58361311,
        "meta_eccentricity": 0.00369307,
        "meta_inclination": 99.0776,
        "meta_ra_of_asc_node": 174.1952,
        "meta_arg_of_pericenter": 119.0745,
        "meta_mean_anomaly": 241.4158,
        "meta_ephemeris_type": 0,
        "meta_classification_type": "U",
        "meta_norad_cat_id": 36163,
        "meta_element_set_no": 999,
        "meta_rev_at_epoch": 88965,
        "meta_bstar": 0.0029707469,
        "meta_mean_motion_dot": 0.00013857,
        "meta_mean_motion_ddot": 0,
        "tle_line1": "1 36163U 99025DSL 25331.51823674  .00013857  00000+0  29707-2 0  9994",
        "tle_line2": "2 36163  99.0776 174.1952 0036930 119.0745 241.4158 14.58361311889650"
      },
      "geometry": {
        "type": "Point",
        "coordinates": [
          167.82696415289547,
          52.59638478488366
        ]
      }
    },
    {
      "type": "Feature",
      "properties": {
        "norad_id": 36167,
        "name": "FENGYUN 1C DEB",
        "group": "fengyun-1c-debris",
        "lat": 44.26470418761464,
        "lon": 72.16621621478282,
        "alt_km": 762.8566615269019,
        "timestamp": "2025-12-02T17:49:12.315843+00:00",
        "meta_object_name": "FENGYUN 1C DEB",
        "meta_object_id": "1999-025DSQ",
        "meta_epoch": "2025-11-28T23:42:19.973088",
        "meta_mean_motion": 14.49060184,
        "meta_eccentricity": 0.00697894,
        "meta_inclination": 98.8118,
        "meta_ra_of_asc_node": 239.5513,
        "meta_arg_of_pericenter": 286.6163,
        "meta_mean_anomaly": 72.7374,
        "meta_ephemeris_type": 0,
        "meta_classification_type": "U",
        "meta_norad_cat_id": 36167,
        "meta_element_set_no": 999,
        "meta_rev_at_epoch": 67080,
        "meta_bstar": 0.0012141916,
        "meta_mean_motion_dot": 4.705e-05,
        "meta_mean_motion_ddot": 0,
        "tle_line1": "1 36167U 99025DSQ 25332.98773117  .00004705  00000+0  12142-2 0  9993",
        "tle_line2": "2 36167  98.8118 239.5513 0069789 286.6163  72.7374 14.49060184670807"
      },
      "geometry": {
        "type": "Point",
        "coordinates": [
          72.16621621478282,
          44.26470418761464
        ]
      }
    },
    {
      "type": "Feature",
      "properties": {
        "norad_id": 36173,
        "name": "FENGYUN 1C DEB",
        "group": "fengyun-1c-debris",
        "lat": -22.025723280508764,
        "lon": -62.16317666709005,
        "alt_km": 869.1898296012942,
        "timestamp": "2025-12-02T17:49:12.315853+00:00",
        "meta_object_name": "FENGYUN 1C DEB",
        "meta_object_id": "1999-025DSW",
        "meta_epoch": "2025-11-27T03:07:28.371072",
        "meta_mean_motion": 14.25142788,
        "meta_eccentricity": 0.01460397,
        "meta_inclination": 98.2105,
        "meta_ra_of_asc_node": 289.2336,
        "meta_arg_of_pericenter": 231.4906,
        "meta_mean_anomaly": 127.3105,
        "meta_ephemeris_type": 0,
        "meta_classification_type": "U",
        "meta_norad_cat_id": 36173,
        "meta_element_set_no": 999,
        "meta_rev_at_epoch": 58868,
        "meta_bstar": 0.00039734703,
        "meta_mean_motion_dot": 1e-05,
        "meta_mean_motion_ddot": 0,
        "tle_line1": "1 36173U 99025DSW 25331.13018948  .00001000  00000+0  39735-3 0  9993",
        "tle_line2": "2 36173  98.2105 289.2336 0146039 231.4906 127.3105 14.25142788588684"
      },
      "geometry": {
        "type": "Point",
        "coordinates": [
          -62.16317666709005,
          -22.025723280508764
        ]
      }
    },
    {
      "type": "Feature",
      "properties": {
        "norad_id": 36180,
        "name": "FENGYUN 1C DEB",
        "group": "fengyun-1c-debris",
        "lat": 62.18341858756,
        "lon": -122.8374161402226,
        "alt_km": 730.5636613578945,
        "timestamp": "2025-12-02T17:49:12.315863+00:00",
        "meta_object_name": "FENGYUN 1C DEB",
        "meta_object_id": "1999-025DTD",
        "meta_epoch": "2025-11-17T22:19:25.486176",
        "meta_mean_motion": 14.20613905,
        "meta_eccentricity": 0.02130555,
        "meta_inclination": 98.4573,
        "meta_ra_of_asc_node": 26.5989,
        "meta_arg_of_pericenter": 102.8674,
        "meta_mean_anomaly": 259.6397,
        "meta_ephemeris_type": 0,
        "meta_classification_type": "U",
        "meta_norad_cat_id": 36180,
        "meta_element_set_no": 999,
        "meta_rev_at_epoch": 70231,
        "meta_bstar": 0.00075960247,
        "meta_mean_motion_dot": 2.013e-05,
        "meta_mean_motion_ddot": 0,
        "tle_line1": "1 36180U 99025DTD 25321.93015609  .00002013  00000+0  75960-3 0  9994",
        "tle_line2": "2 36180  98.4573  26.5989 0213055 102.8674 259.6397 14.20613905702314"
      },
      "geometry": {
        "type": "Point",
        "coordinates": [
          -122.8374161402226,
          62.18341858756
        ]
      }
    },
    {
      "type": "Feature",
      "properties": {
        "norad_id": 36182,
        "name": "FENGYUN 1C DEB",
        "group": "fengyun-1c-debris",
        "lat": -29.650130218400083,
        "lon": 78.55321522042883,
        "alt_km": 786.5032460857819,
        "timestamp": "2025-12-02T17:49:12.315872+00:00",
        "meta_object_name": "FENGYUN 1C DEB",
        "meta_object_id": "1999-025DTF",
        "meta_epoch": "2025-12-02T01:46:52.773024",
        "meta_mean_motion": 14.34573289,
        "meta_eccentricity": 0.00210503,
        "meta_inclination": 99.0876,
        "meta_ra_of_asc_node": 263.0782,
        "meta_arg_of_pericenter": 105.722,
        "meta_mean_anomaly": 254.6287,
        "meta_ephemeris_type": 0,
        "meta_classification_type": "U",
        "meta_norad_cat_id": 36182,
        "meta_element_set_no": 999,
        "meta_rev_at_epoch": 87804,
        "meta_bstar": 0.0017844539,
        "meta_mean_motion_dot": 5.007e-05,
        "meta_mean_motion_ddot": 0,
        "tle_line1": "1 36182U 99025DTF 25336.07422191  .00005007  00000+0  17845-2 0  9998",
        "tle_line2": "2 36182  99.0876 263.0782 0021050 105.7220 254.6287 14.34573289878041"
      },
      "geometry": {
        "type": "Point",
        "coordinates": [
          78.55321522042883,
          -29.650130218400083
        ]
      }
    }
  ]
}